{"type": "FeatureCollection", "features": [ {"type": "Feature", "properties": {"norad_id": 29782, "name": "FENGYUN 1C DEB", "group": "fengyun-1c-debris", "lat": -28.089260974046397, "lon": -138.01260756634736, "alt_km": 822.2348329317274, "timestamp": "2025-12-19T04:59:48.577318+00:00", "meta": {"OBJECT_NAME": "FENGYUN 1C DEB", "OBJECT_ID": "1999-025BY", "EPOCH": "2025-12-18T18:24:01.329984", "MEAN_MOTION": 14.11690543, "ECCENTRICITY": 0.00556959, "INCLINATION": 99.1003, "RA_OF_ASC_NODE": 46.447, "ARG_OF_PERICENTER": 186.5208, "MEAN_ANOMALY": 299.0025, "EPHEMERIS_TYPE": 0, "CLASSIFICATION_TYPE": "U", "NORAD_CAT_ID": 29782, "ELEMENT_SET_NO": 999, "REV_AT_EPOCH": 96756, "BSTAR": 0.0011010975, "MEAN_MOTION_DOT": 1.988e-05, "MEAN_MOTION_DDOT": 0}, "tle": {"line1": "1 29782U 99025BY  25352.76668206  .00001988  00000+0  11011-2 0  9992", "line2": "2 29782  99.1003  46.4470 0055695 186.5208 299.0025 14.11690543967561"}}, "geometry": {"type": "Point", "coordinates": [-138.01260756634736, -28.089260974046397]}}, {"type": "Feature", "properties": {"norad_id": 29784, "name": "FENGYUN 1C DEB", "group": "fengyun-1c-debris", "lat": 77.23747125571384, "lon": -131.8732040464669, "alt_km": 822.918413569033, "timestamp": "2025-12-19T04:59:48.577329+00:00", "meta": {"OBJECT_NAME": "FENGYUN 1C DEB", "OBJECT_ID": "1999-025CA", "EPOCH": "2025-12-18T17:09:48.852000", "MEAN_MOTION": 14.30599366, "ECCENTRICITY": 0.00592276, "INCLINATION": 98.9462, "RA_OF_ASC_NODE": 271.6826, "ARG_OF_PERICENTER": 279.7557, "MEAN_ANOMALY": 143.0596, "EPHEMERIS_TYPE": 0, "CLASSIFICATION_TYPE": "U", "NORAD_CAT_ID": 29784, "ELEMENT_SET_NO": 999, "REV_AT_EPOCH": 98445, "BSTAR": 0.00038130446, "MEAN_MOTION_DOT": 9.67e-06, "MEAN_MOTION_DDOT": 0}, "tle": {"line1": "1 29784U 99025CA  25352.71514875  .00000967  00000+0  38130-3 0  9999", "line2": "2 29784  98.9462 271.6826 0059227 279.7557 143.0596 14.30599366984453"}}, "geometry": {"type": "Point", "coordinates": [-131.8732040464669, 77.23747125571384]}}, {"type": "Feature", "properties": {"norad_id": 29786, "name": "FENGYUN 1C DEB", "group": "fengyun-1c-debris", "lat": -58.08010735203446, "lon": 175.93945113993203, "alt_km": 830.2676012102211, "timestamp": "2025-12-19T04:59:48.577339+00:00", "meta": {"OBJECT_NAME": "FENGYUN 1C DEB", "OBJECT_ID": "1999-025CC", "EPOCH": "2025-12-18T14:50:15.834912", "MEAN_MOTION": 14.09088508, "ECCENTRICITY": 0.00768821, "INCLINATION": 98.7352, "RA_OF_ASC_NODE": 9.6566, "ARG_OF_PERICENTER": 286.2121, "MEAN_ANOMALY": 202.4805, "EPHEMERIS_TYPE": 0, "CLASSIFICATION_TYPE": "U", "NORAD_CAT_ID": 29786, "ELEMENT_SET_NO": 999, "REV_AT_EPOCH": 97243, "BSTAR": 0.00010537428, "MEAN_MOTION_DOT": 1.44e-06, "MEAN_MOTION_DDOT": 0}, "tle": {"line1": "1 29786U 99025CC  25352.61823883  .00000144  00000+0  10537-3 0  9990", "line2": "2 29786  98.7352   9.6566 0076882 286.2121 202.4805 14.09088508972432"}}, "geometry": {"type": "Point", "coordinates": [175.93945113993203, -58.08010735203446]}}, {"type": "Feature", "properties": {"norad_id": 29788, "name": "FENGYUN 1C DEB", "group": "fengyun-1c-debris", "lat": -27.391711459070887, "lon": -119.74791189250828, "alt_km": 785.8336114872873, "timestamp": "2025-12-19T04:59:48.577349+00:00", "meta": {"OBJECT_NAME": "FENGYUN 1C DEB", "OBJECT_ID": "1999-025CE", "EPOCH": "2025-12-18T18:27:22.113216", "MEAN_MOTION": 14.26017023, "ECCENTRICITY": 0.00431728, "INCLINATION": 98.7843, "RA_OF_ASC_NODE": 64.4075, "ARG_OF_PERICENTER": 172.3095, "MEAN_ANOMALY": 301.6253, "EPHEMERIS_TYPE": 0, "CLASSIFICATION_TYPE": "U", "NORAD_CAT_ID": 29788, "ELEMENT_SET_NO": 999, "REV_AT_EPOCH": 97441, "BSTAR": 0.0012301045, "MEAN_MOTION_DOT": 2.921e-05, "MEAN_MOTION_DDOT": 0}, "tle": {"line1": "1 29788U 99025CE  25352.76900594  .00002921  00000+0  12301-2 0  9998", "line2": "2 29788  98.7843  64.4075 0043172 172.3095 301.6253 14.26017023974416"}}, "geometry": {"type": "Point", "coordinates": [-119.74791189250828, -27.391711459070887]}}, {"type": "Feature", "properties": {"norad_id": 29789, "name": "FENGYUN 1C DEB", "group": "fengyun-1c-debris", "lat": 56.32360557403779, "lon": 10.205306685055387, "alt_km": 1218.465645147764, "timestamp": "2025-12-19T04:59:48.577359+00:00", "meta": {"OBJECT_NAME": "FENGYUN 1C DEB", "OBJECT_ID": "1999-025CF", "EPOCH": "2025-12-18T06:13:56.091936", "MEAN_MOTION": 13.54253439, "ECCENTRICITY": 0.02983336, "INCLINATION": 99.4511, "RA_OF_ASC_NODE": 174.8213, "ARG_OF_PERICENTER": 264.8716, "MEAN_ANOMALY": 277.8182, "EPHEMERIS_TYPE": 0, "CLASSIFICATION_TYPE": "U", "NORAD_CAT_ID": 29789, "ELEMENT_SET_NO": 999, "REV_AT_EPOCH": 93062, "BSTAR": 0.0011923009, "MEAN_MOTION_DOT": 1.033e-05, "MEAN_MOTION_DDOT": 0}, "tle": {"line1": "1 29789U 99025CF  25352.25967699  .00001033  00000+0  11923-2 0  9994", "line2": "2 29789  99.4511 174.8213 0298333 264.8716 277.8182 13.54253439930628"}}, "geometry": {"type": "Point", "coordinates": [10.205306685055387, 56.32360557403779]}}, {"type": "Feature", "properties": {"norad_id": 29790, "name": "FENGYUN 1C DEB", "group": "fengyun-1c-debris", "lat": -80.79975113783176, "lon": 83.43065429178233, "alt_km": 811.0358567866897, "timestamp": "2025-12-19T04:59:48.577369+00:00", "meta": {"OBJECT_NAME": "FENGYUN 1C DEB", "OBJECT_ID": "1999-025CG", "EPOCH": "2025-12-18T22:43:11.431776", "MEAN_MOTION": 14.32278416, "ECCENTRICITY": 0.00767757, "INCLINATION": 99.1474, "RA_OF_ASC_NODE": 347.3079, "ARG_OF_PERICENTER": 158.5375, "MEAN_ANOMALY": 201.9055, "EPHEMERIS_TYPE": 0, "CLASSIFICATION_TYPE": "U", "NORAD_CAT_ID": 29790, "ELEMENT_SET_NO": 999, "REV_AT_EPOCH": 98614, "BSTAR": 0.00021487136, "MEAN_MOTION_DOT": 5.51e-06, "MEAN_MOTION_DDOT": 0}, "tle": {"line1": "1 29790U 99025CG  25352.94666009  .00000551  00000+0  21487-3 0  9994", "line2": "2 29790  99.1474 347.3079 0076775 158.5375 201.9055 14.32278416986140"}}, "geometry": {"type": "Point", "coordinates": [83.43065429178233, -80.79975113783176]}}, {"type": "Feature", "properties": {"norad_id": 29791, "name": "FENGYUN 1C DEB", "group": "fengyun-1c-debris", "lat": 78.89142575378189, "lon": -59.83202946033725, "alt_km": 668.9378873787118, "timestamp": "2025-12-19T04:59:48.577379+00:00", "meta": {"OBJECT_NAME": "FENGYUN 1C DEB", "OBJECT_ID": "1999-025CH", "EPOCH": "2025-12-18T22:18:42.444288", "MEAN_MOTION": 14.58331269, "ECCENTRICITY": 0.00414015, "INCLINATION": 99.036, "RA_OF_ASC_NODE": 354.0072, "ARG_OF_PERICENTER": 43.6022, "MEAN_ANOMALY": 18.1147, "EPHEMERIS_TYPE": 0, "CLASSIFICATION_TYPE": "U", "NORAD_CAT_ID": 29791, "ELEMENT_SET_NO": 999, "REV_AT_EPOCH": 98936, "BSTAR": 0.0011741516, "MEAN_MOTION_DOT": 5.445e-05, "MEAN_MOTION_DDOT": 0}, "tle": {"line1": "1 29791U 99025CH  25352.92965792  .00005445  00000+0  11742-2 0  9993", "line2": "2 29791  99.0360 354.0072 0041401  43.6022  18.1147 14.58331269989364"}}, "geometry": {"type": "Point", "coordinates": [-59.83202946033725, 78.89142575378189]}}, {"type": "Feature", "properties": {"norad_id": 29792, "name": "FENGYUN 1C DEB", "group": "fengyun-1c-debris", "lat": -0.6332434606490206, "lon": -136.4433938038016, "alt_km": 877.5862300277022, "timestamp": "2025-12-19T04:59:48.577390+00:00", "meta": {"OBJECT_NAME": "FENGYUN 1C DEB", "OBJECT_ID": "1999-025CJ", "EPOCH": "2025-12-18T14:34:24.040416", "MEAN_MOTION": 14.15182264, "ECCENTRICITY": 0.0047697, "INCLINATION": 98.7572, "RA_OF_ASC_NODE": 43.0643, "ARG_OF_PERICENTER": 19.2953, "MEAN_ANOMALY": 341.0014, "EPHEMERIS_TYPE": 0, "CLASSIFICATION_TYPE": "U", "NORAD_CAT_ID": 29792, "ELEMENT_SET_NO": 999, "REV_AT_EPOCH": 97022, "BSTAR": 0.0010087788, "MEAN_MOTION_DOT": 1.938e-05, "MEAN_MOTION_DDOT": 0}, "tle": {"line1": "1 29792U 99025CJ  25352.60722269  .00001938  00000+0  10088-2 0  9994", "line2": "2 29792  98.7572  43.0643 0047697  19.2953 341.0014 14.15182264970228"}}, "geometry": {"type": "Point", "coordinates": [-136.4433938038016, -0.6332434606490206]}}, {"type": "Feature", "properties": {"norad_id": 29793, "name": "FENGYUN 1C DEB", "group": "fengyun-1c-debris", "lat": -10.704426576099946, "lon": -10.151347317034345, "alt_km": 959.1668195433458, "timestamp": "2025-12-19T04:59:48.577400+00:00", "meta": {"OBJECT_NAME": "FENGYUN 1C DEB", "OBJECT_ID": "1999-025CK", "EPOCH": "2025-12-18T11:11:51.840672", "MEAN_MOTION": 14.01095208, "ECCENTRICITY": 0.01435875, "INCLINATION": 98.3533, "RA_OF_ASC_NODE": 170.7613, "ARG_OF_PERICENTER": 321.9408, "MEAN_ANOMALY": 91.4047, "EPHEMERIS_TYPE": 0, "CLASSIFICATION_TYPE": "U", "NORAD_CAT_ID": 29793, "ELEMENT_SET_NO": 999, "REV_AT_EPOCH": 96229, "BSTAR": 0.00082495258, "MEAN_MOTION_DOT": 1.314e-05, "MEAN_MOTION_DDOT": 0}, "tle": {"line1": "1 29793U 99025CK  25352.46657223  .00001314  00000+0  82495-3 0  9996", "line2": "2 29793  98.3533 170.7613 0143587 321.9408  91.4047 14.01095208962296"}}, "geometry": {"type": "Point", "coordinates": [-10.151347317034345, -10.704426576099946]}}, {"type": "Feature", "properties": {"norad_id": 29794, "name": "FENGYUN 1C DEB", "group": "fengyun-1c-debris", "lat": -35.995918358064266, "lon": 157.2806019723524, "alt_km": 808.0172330241248, "timestamp": "2025-12-19T04:59:48.577410+00:00", "meta": {"OBJECT_NAME": "FENGYUN 1C DEB", "OBJECT_ID": "1999-025CL", "EPOCH": "2025-12-18T10:42:02.085408", "MEAN_MOTION": 14.09008563, "ECCENTRICITY": 0.01568567, "INCLINATION": 98.2, "RA_OF_ASC_NODE": 150.5738, "ARG_OF_PERICENTER": 24.1383, "MEAN_ANOMALY": 36.3057, "EPHEMERIS_TYPE": 0, "CLASSIFICATION_TYPE": "U", "NORAD_CAT_ID": 29794, "ELEMENT_SET_NO": 999, "REV_AT_EPOCH": 96928, "BSTAR": 0.00046396802, "MEAN_MOTION_DOT": 8.62e-06, "MEAN_MOTION_DDOT": 0}, "tle": {"line1": "1 29794U 99025CL  25352.44585747  .00000862  00000+0  46397-3 0  9994", "line2": "2 29794  98.2000 150.5738 0156856  24.1383  36.3057 14.09008563969287"}}, "geometry": {"type": "Point", "coordinates": [157.2806019723524, -35.995918358064266]}}]}